{"fetched_at":"2026-03-29T02:12:04Z","count":15717,"tles":[{"name":"EXPRESS-AM8","line1":"1 40895U 15048A   26086.90024442 -.00000131  00000+0  00000+0 0  9995","line2":"2 40895   0.0092 223.4673 0000345  56.6227 215.3106  1.00271846 38532","category":"Other"}]}